GSAT-14                 
1 39498U 14001A   26098.20808519 -.00000075  00000+0  00000+0 0  9998
2 39498   0.0126 252.5421 0002931  69.3511  23.4935  1.00271678 44674
THAICOM 6               
1 39500U 14002A   26098.11360029 -.00000119  00000+0  00000+0 0  9991
2 39500   0.0599 108.6954 0003550 327.0259 240.0761  1.00272873 44756
TDRS 12                 
1 39504U 14004A   26098.56793767 -.00000266  00000+0  00000+0 0  9998
2 39504   3.9099  17.8750 0002408 255.8068  86.6541  1.00276414 43573
ABS-2                   
1 39508U 14006A   26098.19851631 -.00000084  00000+0  00000+0 0  9996
2 39508   0.0558  79.4524 0003138 309.1479 314.2518  1.00272559 44579
ATHENA-FIDUS            
1 39509U 14006B   26097.82038029  .00000156  00000+0  00000+0 0  9993
2 39509   0.0111 158.0798 0001495 244.7058 126.4332  1.00273719 44388
TURKSAT 4A              
1 39522U 14007A   26098.24906086  .00000148  00000+0  00000+0 0  9994
2 39522   0.0628 286.7937 0003465  39.1430   2.2416  1.00273197 44260
EXPRESS-AT1             
1 39612U 14010A   26098.53716630  .00000074  00000+0  00000+0 0  9992
2 39612   0.0797  80.8622 0001461   9.1665 356.8506  1.00283918 44116
EXPRESS-AT2             
1 39613U 14010B   26098.10918027  .00000081  00000+0  00000+0 0  9998
2 39613   0.0343  78.9918 0000101  78.6461 134.0332  1.00271682 43796
AMAZONAS 4A             
1 39616U 14011A   26098.58257983 -.00000250  00000+0  00000+0 0  9990
2 39616   0.0656 213.2295 0001885 186.6132 292.7084  1.00270519 44013
ASTRA 5B                
1 39617U 14011B   26098.03143994  .00000139  00000+0  00000+0 0  9992
2 39617   0.0861 298.1490 0002974  63.7255 229.2480  1.00273551 43969
IRNSS-1B                
1 39635U 14017A   26098.46557932  .00000110  00000+0  00000+0 0  9995
2 39635  29.0472 241.5963 0022969 180.1714 357.6425  1.00267044 44095
LUCH-5V                 
1 39727U 14023A   26098.47337934 -.00000264  00000+0  00000+0 0  9994
2 39727   4.9620  70.4231 0002978 325.6802  65.7537  1.00269308 43661
KAZSAT-3                
1 39728U 14023B   26098.10970027  .00000063  00000+0  00000+0 0  9997
2 39728   0.0465  63.9842 0000449  26.9133 203.4708  1.00272805 41755
EUTELSAT 3B             
1 39773U 14030A   26098.38387585  .00000022  00000+0  00000+0 0  9991
2 39773   0.0652   5.0824 0001428  86.2340 246.5918  1.00271491 43367
ASIASAT 8 (AMOS-7)      
1 40107U 14046A   26098.54678633 -.00000330  00000+0  00000+0 0  9999
2 40107   0.0221 255.7303 0001442 139.1671 104.0219  1.00267604101457
ASIASAT 6               
1 40141U 14052A   26098.54964634  .00000000  00000+0  00000+0 0  9996
2 40141   0.0140 198.9192 0000943 179.2206 136.4584  1.00268532 42384
OPTUS 10                
1 40146U 14054A   26097.91510483 -.00000145  00000+0  00000+0 0  9993
2 40146   0.0903 322.5497 0001958  61.5577 297.5150  1.00273183 42320
MEASAT-3B               
1 40147U 14054B   26097.83095366 -.00000239  00000+0  00000+0 0  9997
2 40147   0.0392  47.9664 0003170 354.3245 184.4417  1.00269735 42205
HIMAWARI-8              
1 40267U 14060A   26098.50877844 -.00000273  00000+0  00000+0 0  9999
2 40267   0.0138 130.4760 0000989 236.5198 153.6003  1.00272546 42061
IRNSS-1C                
1 40269U 14061A   26098.54236631 -.00000157  00000+0  00000+0 0  9990
2 40269   6.3398  90.2619 0020956 356.5198  28.3186  1.00272507 41993
INTELSAT 30 (IS-30)     
1 40271U 14062A   26098.29317436 -.00000149  00000+0  00000+0 0  9990
2 40271   0.0103 219.2725 0001403  37.3198 310.4724  1.00272226  6095
ARSAT 1                 
1 40272U 14062B   26098.60055262 -.00000258  00000+0  00000+0 0  9993
2 40272   0.0273 286.9288 0001689  95.7862 318.5288  1.00271127 41925
EUTELSAT 53A            
1 40277U 14064A   26098.60771326  .00000100  00000+0  00000+0 0  9991
2 40277   0.0131 248.8374 0001239 173.1506  46.6510  1.00272372 40876
GSAT-16                 
1 40332U 14078A   26098.46549265  .00000087  00000+0  00000+0 0  9991
2 40332   0.0701  81.5896 0006688 351.6770 346.1028  1.00272839 41401
DIRECTV 14              
1 40333U 14078B   26098.16780580 -.00000123  00000+0  00000+0 0  9998
2 40333   0.0110 194.1347 0000783 302.0181  21.4520  1.00273151 41345
YAMAL 401               
1 40345U 14082A   26098.54375299 -.00000226  00000+0  00000+0 0  9999
2 40345   0.0033 204.2184 0000312 202.4252  75.8453  1.00272099 41229
ASTRA 2G                
1 40364U 14089A   26098.07683734  .00000152  00000+0  00000+0 0  9998
2 40364   0.0526  10.9273 0005055  37.6070 203.6882  1.00275277 41265
FENGYUN 2G              
1 40367U 14090A   26098.60367785 -.00000298  00000+0  00000+0 0  9999
2 40367   5.4630  73.6430 0002637 143.1981 296.8239  1.00281424 41307
MUOS-3                  
1 40374U 15002A   26098.23770746 -.00000124  00000+0  00000+0 0  9993
2 40374   4.3873  43.1714 0051573 182.6118  40.8350  1.00271287 40881
INMARSAT 5-F2           
1 40384U 15005A   26098.44373921 -.00000283  00000+0  00000+0 0  9990
2 40384   0.0157 184.1383 0000962 192.8309 284.4725  1.00271404 40297
ABS-3A                  
1 40424U 15010A   26098.02615325 -.00000023  00000+0  00000+0 0  9994
2 40424   0.0117 222.9636 0001738 106.0994 233.6749  1.00274713 40679
EUTELSAT 115 WEST B     
1 40425U 15010B   26097.93269823 -.00000023  00000+0  00000+0 0  9992
2 40425   0.0114  70.9160 0000284 204.6034 141.5502  1.00271925 40682
EXPRESS-AM7             
1 40505U 15012A   26097.82081362  .00000153  00000+0  00000+0 0  9994
2 40505   0.0151 180.0493 0003079 193.9144 157.6057  1.00271601 40304
BEIDOU-3S IGSO-1S       
1 40549U 15019A   26082.29086919 -.00000163  00000+0  00000+0 0  9999
2 40549  49.3559 296.4949 0036261 190.1236 255.1180  1.00268843 40213
THOR 7                  
1 40613U 15022A   26098.02667325 -.00000006  00000+0  00000+0 0  9995
2 40613   0.0046 207.8866 0002525 176.3267 181.0226  1.00271062 40114
TURKMENALEM52E/MONACOSAT
1 40617U 15023A   26098.53621295  .00000106  00000+0  00000+0 0  9992
2 40617   0.0342  82.1427 0003115 301.4844  58.2108  1.00271924 40146
DIRECTV 15              
1 40663U 15026A   26098.57685980 -.00000100  00000+0  00000+0 0  9996
2 40663   0.0312  90.2167 0000352  56.5880 154.8176  1.00269327 39761
SKY MEXICO-1            
1 40664U 15026B   26098.58162649 -.00000232  00000+0  00000+0 0  9996
2 40664   0.0132 250.7745 0002632 155.9131 280.7307  1.00271831 39750
METEOSAT-11 (MSG-4)     
1 40732U 15034A   26098.31388779  .00000067  00000+0  00000+0 0  9991
2 40732   3.0267  71.4741 0001750 286.1167 321.3468  1.00277125  6518
STAR ONE C4             
1 40733U 15034B   26098.01289321 -.00000263  00000+0  00000+0 0  9991
2 40733   0.0370  25.0991 0002818 350.1426 115.6782  1.00272070 39310
WGS F7 (USA 263)        
1 40746U 15036A   26098.41433685  .00000019  00000+0  00000+0 0  9993
2 40746   0.0158 228.4774 0001359 252.5206  39.8158  1.00269557 39170
INTELSAT 34 (IS-34)     
1 40874U 15039A   26098.44365255 -.00000283  00000+0  00000+0 0  9992
2 40874   0.0243 275.1439 0000141 225.5294 160.2533  1.00270468 38920
EUTELSAT 8 WEST B       
1 40875U 15039B   26098.38170917 -.00000063  00000+0  00000+0 0  9991
2 40875   0.0699 350.3174 0003843  28.4207 307.3342  1.00272474 38958
GSAT-6                  
1 40880U 15041A   26098.54227964 -.00000157  00000+0  00000+0 0  9997
2 40880   1.7397  83.4457 0003055 302.4573  88.6236  1.00269623 38909
INMARSAT 5-F3           
1 40882U 15042A   26098.33794976  .00000052  00000+0  00000+0 0  9992
2 40882   0.0159 181.4040 0001259 230.4215  86.0130  1.00270263 38876
MUOS-4                  
1 40887U 15044A   26098.46956600 -.00000088  00000+0  00000+0 0  9997
2 40887   4.1996  41.7654 0059889   0.5799  38.3632  1.00272374 38860
TJS-1                   
1 40892U 15046A   26098.23317012 -.00000153  00000+0  00000+0 0  9991
2 40892   0.1420  83.1566 0005407 321.0847  31.2295  1.00272527 38865
EXPRESS-AM8             
1 40895U 15048A   26097.31094303 -.00000108  00000+0  00000+0 0  9999
2 40895   0.0138 235.0293 0000248  92.0914 326.4080  1.00275025 38638
BEIDOU-3S IGSO-2S       
1 40938U 15053A   26098.40259591 -.00000124  00000+0  00000+0 0  9994
2 40938  49.3310 259.6086 0062505 190.0166 348.8094  1.00276459 38655
SKY MUSTER 1 (NBN1A)    
1 40940U 15054A   26098.39558403 -.00000276  00000+0  00000+0 0  9998
2 40940   0.0153 233.4610 0001883 149.0318  96.8249  1.00270973 38562
ARSAT 2                 
1 40941U 15054B   26098.50986617 -.00000223  00000+0  00000+0 0  9996
2 40941   0.0258 282.0721 0002000  94.8386 282.4038  1.00271398 38602
MORELOS 3               
1 40946U 15056A   26097.93304490 -.00000040  00000+0  00000+0 0  9999
2 40946   3.1341  13.1097 0003392   0.5619  45.3241  1.00273072 38581
APSTAR-9                
1 40982U 15059A   26098.55406635 -.00000264  00000+0  00000+0 0  9993
2 40982   0.0400  17.3921 0000857 211.4329 309.4771  1.00272383 38428
TURKSAT 4B              
1 40984U 15060A   26098.03663997  .00000000  00000+0  00000+0 0  9993
2 40984   0.0136 192.3340 0002387 195.2195 231.9370  1.00273464 38396
ZHONGXING-2C            
1 41021U 15063A   26098.54643966 -.00000322  00000+0  00000+0 0  9997
2 41021   0.0956  96.2628 0005726 115.0921 285.6294  1.00273614 38283
GSAT-15                 
1 41028U 15065A   26098.33052787  .00000000  00000+0  00000+0 0  9990
2 41028   0.0135 189.4348 0002955 221.4815 358.1588  1.00270177 38090
BADR-7 (ARABSAT-6B)     
1 41029U 15065B   26098.07683734  .00000147  00000+0  00000+0 0  9996
2 41029   0.0458 241.1267 0002242 356.3182  12.5835  1.00274979 38066
LAOSAT 1                
1 41034U 15067A   26098.55137968  .00000000  00000+0  00000+0 0  9998
2 41034   0.0103  40.7968 0001800 313.5448 169.4708  1.00267305 38166
TELSTAR 12V             
1 41036U 15068A   26098.42891755  .00000000  00000+0  00000+0 0  9998
2 41036   0.0149 193.8890 0002660 189.4156 312.8028  1.00270239 37925
